SHENZHOU-21 (SZ-21)     
1 66263U 25246A   25307.90407964  .00031822  00000+0  38006-3 0  9993
2 66263  41.4667 252.5607 0006419 318.2351  41.7998 15.60323166257941
CZ-2F R/B               
1 66264U 25246B   25307.88060596  .00992096  75791-5  64782-3 0  9991
2 66264  41.4651 251.4357 0096960 149.8032 210.8459 16.06270355   522
